FLOCK 4G-10             
1 62670U 25009BP  26068.70827885  .00013952  00000+0  52624-3 0  9995
2 62670  97.3967 150.5883 0003469 341.4844  18.6269 15.27155944121340
STARLINK-34141          
1 64020U 25101AC  26067.83547559  .00030132  00000+0  11000-2 0  9990
2 64020  42.9999   2.8639 0000945 285.9629  74.1118 15.27581531 46924
